ATLAS 2 CENTAUR R/B(2)  
1 23648U 95038C   26065.47543889  .00000088  00000+0  00000+0 0  9999
2 23648  13.7755 346.0709 0023651 301.6307  58.1403  1.01263584 25041
COSMOS 2319             
1 23653U 95045A   26066.62374264 -.00000369  00000+0  00000+0 0  9993
2 23653  14.3688 353.4826 0006872 268.7005 253.2357  1.00205865111774
SL-12 R/B(2)            
1 23656U 95045D   26065.43190895  .00000076  00000+0  00000+0 0  9994
2 23656  14.4264 353.8086 0018248  50.8739 137.2445  1.00140295111633
TELSTAR 4 (TELSTAR 402R)
1 23670U 95049A   26066.36850411 -.00000175  00000+0  00000+0 0  9995
2 23670  13.5057  13.4347 0004932 321.9019 227.2684  1.00295963111487
LUCH-1                  
1 23680U 95054A   26065.92282223 -.00000119  00000+0  00000+0 0  9991
2 23680  15.0206   0.0565 0004444 149.8818  62.8022  1.00266993111320
SL-12 R/B(2)            
1 23683U 95054D   26066.59834081 -.00000372  00000+0  00000+0 0  9994
2 23683  14.9844 359.8692 0017889  97.5664  38.6274  1.00200512111358
ARIANE 42L+3 R/B        
1 23687U 95055B   26065.06938738 -.00000067  00000+0  63006-3 0  9994
2 23687   5.2513 297.3223 7228115 266.2464  16.0926  2.22313983245770
USA 115 (MILSTAR-1 2)   
1 23712U 95060A   26066.46572308 -.00000020  00000+0  00000+0 0  9991
2 23712  14.0365   4.5018 0003969 340.2515 228.0937  1.00270959 31863
TITAN 401 CENTAUR R/B   
1 23713U 95060B   26066.28179148 -.00000321  00000+0  00000+0 0  9991
2 23713  14.3799 359.6385 0035643 224.3828 135.3289  1.00602911 24401
ISO                     
1 23715U 95062A   26066.04467851 -.00000243  00000+0 -13813-2 0  9993
2 23715   2.5468 325.3559 8364528 324.0533   2.2977  1.02201501112657
ARIANE 44P+3 R/B        
1 23716U 95062B   26065.61621918 -.00000274  00000+0  00000+0 0  9996
2 23716   4.4261  22.8986 8347784  16.5393 358.6081  0.95004200105233
GALS 2                  
1 23717U 95063A   26066.15058667 -.00000300  00000+0  00000+0 0  9993
2 23717  14.4520   3.3659 0009359 329.3540  33.7046  0.99895122110613
SL-12 R/B(2)            
1 23720U 95063D   26066.01112837  .00000033  00000+0  00000+0 0  9994
2 23720  14.1945 348.9422 0035222 187.9968   0.4286  1.00286442110968
INSAT-2C                
1 23731U 95067B   26065.55032141  .00000084  00000+0  00000+0 0  9993
2 23731  14.2463   9.0359 0003899   6.5200 196.0895  0.99783647110380
GALAXY 3R (G-3R)        
1 23741U 95069A   26066.47128346  .00000021  00000+0  00000+0 0  9992
2 23741  13.1925  16.9856 0001857 347.5174 202.8386  1.00309981110795
ABS-1A                  
1 23768U 96003A   26065.73100363 -.00000250  00000+0  00000+0 0  9992
2 23768  12.4677  26.3145 0001167 296.3028 261.0130  0.99803678110152
DELTA 2 R/B(2)          
1 23770U 96003C   26066.28242177  .00000013  00000+0  00000+0 0  9992
2 23770  20.4422 155.2660 6924181 298.2559  13.9659  2.19761989242116
