[{"OBJECT_NAME":"ATLAS 2 CENTAUR R/B(2)","OBJECT_ID":"1995-038C","EPOCH":"2026-03-06T11:24:37.920096","MEAN_MOTION":1.01263584,"ECCENTRICITY":0.00236514,"INCLINATION":13.7755,"RA_OF_ASC_NODE":346.0709,"ARG_OF_PERICENTER":301.6307,"MEAN_ANOMALY":58.1403,"EPHEMERIS_TYPE":0,"CLASSIFICATION_TYPE":"U","NORAD_CAT_ID":23648,"ELEMENT_SET_NO":999,"REV_AT_EPOCH":2504,"BSTAR":0,"MEAN_MOTION_DOT":8.8e-7,"MEAN_MOTION_DDOT":0},{"OBJECT_NAME":"COSMOS 2319","OBJECT_ID":"1995-045A","EPOCH":"2026-03-07T14:58:11.364096","MEAN_MOTION":1.00205865,"ECCENTRICITY":0.00068727,"INCLINATION":14.3688,"RA_OF_ASC_NODE":353.4826,"ARG_OF_PERICENTER":268.7005,"MEAN_ANOMALY":253.2357,"EPHEMERIS_TYPE":0,"CLASSIFICATION_TYPE":"U","NORAD_CAT_ID":23653,"ELEMENT_SET_NO":999,"REV_AT_EPOCH":11177,"BSTAR":0,"MEAN_MOTION_DOT":-3.69e-6,"MEAN_MOTION_DDOT":0},{"OBJECT_NAME":"SL-12 R/B(2)","OBJECT_ID":"1995-045D","EPOCH":"2026-03-06T10:21:56.933280","MEAN_MOTION":1.00140295,"ECCENTRICITY":0.00182484,"INCLINATION":14.4264,"RA_OF_ASC_NODE":353.8086,"ARG_OF_PERICENTER":50.8739,"MEAN_ANOMALY":137.2445,"EPHEMERIS_TYPE":0,"CLASSIFICATION_TYPE":"U","NORAD_CAT_ID":23656,"ELEMENT_SET_NO":999,"REV_AT_EPOCH":11163,"BSTAR":0,"MEAN_MOTION_DOT":7.6e-7,"MEAN_MOTION_DDOT":0},{"OBJECT_NAME":"TELSTAR 4 (TELSTAR 402R)","OBJECT_ID":"1995-049A","EPOCH":"2026-03-07T08:50:38.755104","MEAN_MOTION":1.00295963,"ECCENTRICITY":0.00049329,"INCLINATION":13.5057,"RA_OF_ASC_NODE":13.4347,"ARG_OF_PERICENTER":321.9019,"MEAN_ANOMALY":227.2684,"EPHEMERIS_TYPE":0,"CLASSIFICATION_TYPE":"U","NORAD_CAT_ID":23670,"ELEMENT_SET_NO":999,"REV_AT_EPOCH":11148,"BSTAR":0,"MEAN_MOTION_DOT":-1.75e-6,"MEAN_MOTION_DDOT":0},{"OBJECT_NAME":"LUCH-1","OBJECT_ID":"1995-054A","EPOCH":"2026-03-06T22:08:51.840672","MEAN_MOTION":1.00266993,"ECCENTRICITY":0.0004444,"INCLINATION":15.0206,"RA_OF_ASC_NODE":0.0565,"ARG_OF_PERICENTER":149.8818,"MEAN_ANOMALY":62.8022,"EPHEMERIS_TYPE":0,"CLASSIFICATION_TYPE":"U","NORAD_CAT_ID":23680,"ELEMENT_SET_NO":999,"REV_AT_EPOCH":11132,"BSTAR":0,"MEAN_MOTION_DOT":-1.19e-6,"MEAN_MOTION_DDOT":0},{"OBJECT_NAME":"SL-12 R/B(2)","OBJECT_ID":"1995-054D","EPOCH":"2026-03-07T14:21:36.645984","MEAN_MOTION":1.00200512,"ECCENTRICITY":0.00178893,"INCLINATION":14.9844,"RA_OF_ASC_NODE":359.8692,"ARG_OF_PERICENTER":97.5664,"MEAN_ANOMALY":38.6274,"EPHEMERIS_TYPE":0,"CLASSIFICATION_TYPE":"U","NORAD_CAT_ID":23683,"ELEMENT_SET_NO":999,"REV_AT_EPOCH":11135,"BSTAR":0,"MEAN_MOTION_DOT":-3.72e-6,"MEAN_MOTION_DDOT":0},{"OBJECT_NAME":"ARIANE 42L+3 R/B","OBJECT_ID":"1995-055B","EPOCH":"2026-03-06T01:39:55.069632","MEAN_MOTION":2.22313983,"ECCENTRICITY":0.72281154,"INCLINATION":5.2513,"RA_OF_ASC_NODE":297.3223,"ARG_OF_PERICENTER":266.2464,"MEAN_ANOMALY":16.0926,"EPHEMERIS_TYPE":0,"CLASSIFICATION_TYPE":"U","NORAD_CAT_ID":23687,"ELEMENT_SET_NO":999,"REV_AT_EPOCH":24577,"BSTAR":0.00063005634,"MEAN_MOTION_DOT":-6.7e-7,"MEAN_MOTION_DDOT":0},{"OBJECT_NAME":"USA 115 (MILSTAR-1 2)","OBJECT_ID":"1995-060A","EPOCH":"2026-03-07T11:10:38.474112","MEAN_MOTION":1.00270959,"ECCENTRICITY":0.00039692,"INCLINATION":14.0365,"RA_OF_ASC_NODE":4.5018,"ARG_OF_PERICENTER":340.2515,"MEAN_ANOMALY":228.0937,"EPHEMERIS_TYPE":0,"CLASSIFICATION_TYPE":"U","NORAD_CAT_ID":23712,"ELEMENT_SET_NO":999,"REV_AT_EPOCH":3186,"BSTAR":0,"MEAN_MOTION_DOT":-2.0e-7,"MEAN_MOTION_DDOT":0},{"OBJECT_NAME":"TITAN 401 CENTAUR R/B","OBJECT_ID":"1995-060B","EPOCH":"2026-03-07T06:45:46.783872","MEAN_MOTION":1.00602911,"ECCENTRICITY":0.00356436,"INCLINATION":14.3799,"RA_OF_ASC_NODE":359.6385,"ARG_OF_PERICENTER":224.3828,"MEAN_ANOMALY":135.3289,"EPHEMERIS_TYPE":0,"CLASSIFICATION_TYPE":"U","NORAD_CAT_ID":23713,"ELEMENT_SET_NO":999,"REV_AT_EPOCH":2440,"BSTAR":0,"MEAN_MOTION_DOT":-3.21e-6,"MEAN_MOTION_DDOT":0},{"OBJECT_NAME":"ISO","OBJECT_ID":"1995-062A","EPOCH":"2026-03-07T01:04:20.223264","MEAN_MOTION":1.02201501,"ECCENTRICITY":0.8364528,"INCLINATION":2.5468,"RA_OF_ASC_NODE":325.3559,"ARG_OF_PERICENTER":324.0533,"MEAN_ANOMALY":2.2977,"EPHEMERIS_TYPE":0,"CLASSIFICATION_TYPE":"U","NORAD_CAT_ID":23715,"ELEMENT_SET_NO":999,"REV_AT_EPOCH":11265,"BSTAR":-0.0013813,"MEAN_MOTION_DOT":-2.43e-6,"MEAN_MOTION_DDOT":0},{"OBJECT_NAME":"ARIANE 44P+3 R/B","OBJECT_ID":"1995-062B","EPOCH":"2026-03-06T14:47:21.337152","MEAN_MOTION":0.950042,"ECCENTRICITY":0.83477842,"INCLINATION":4.4261,"RA_OF_ASC_NODE":22.8986,"ARG_OF_PERICENTER":16.5393,"MEAN_ANOMALY":358.6081,"EPHEMERIS_TYPE":0,"CLASSIFICATION_TYPE":"U","NORAD_CAT_ID":23716,"ELEMENT_SET_NO":999,"REV_AT_EPOCH":10523,"BSTAR":0,"MEAN_MOTION_DOT":-2.74e-6,"MEAN_MOTION_DDOT":0},{"OBJECT_NAME":"GALS 2","OBJECT_ID":"1995-063A","EPOCH":"2026-03-07T03:36:50.688288","MEAN_MOTION":0.99895122,"ECCENTRICITY":0.0009359,"INCLINATION":14.452,"RA_OF_ASC_NODE":3.3659,"ARG_OF_PERICENTER":329.354,"MEAN_ANOMALY":33.7046,"EPHEMERIS_TYPE":0,"CLASSIFICATION_TYPE":"U","NORAD_CAT_ID":23717,"ELEMENT_SET_NO":999,"REV_AT_EPOCH":11061,"BSTAR":0,"MEAN_MOTION_DOT":-3.0e-6,"MEAN_MOTION_DDOT":0},{"OBJECT_NAME":"SL-12 R/B(2)","OBJECT_ID":"1995-063D","EPOCH":"2026-03-07T00:16:01.491168","MEAN_MOTION":1.00286442,"ECCENTRICITY":0.0035222,"INCLINATION":14.1945,"RA_OF_ASC_NODE":348.9422,"ARG_OF_PERICENTER":187.9968,"MEAN_ANOMALY":0.4286,"EPHEMERIS_TYPE":0,"CLASSIFICATION_TYPE":"U","NORAD_CAT_ID":23720,"ELEMENT_SET_NO":999,"REV_AT_EPOCH":11096,"BSTAR":0,"MEAN_MOTION_DOT":3.3e-7,"MEAN_MOTION_DDOT":0},{"OBJECT_NAME":"INSAT-2C","OBJECT_ID":"1995-067B","EPOCH":"2026-03-06T13:12:27.769824","MEAN_MOTION":0.99783647,"ECCENTRICITY":0.00038998,"INCLINATION":14.2463,"RA_OF_ASC_NODE":9.0359,"ARG_OF_PERICENTER":6.52,"MEAN_ANOMALY":196.0895,"EPHEMERIS_TYPE":0,"CLASSIFICATION_TYPE":"U","NORAD_CAT_ID":23731,"ELEMENT_SET_NO":999,"REV_AT_EPOCH":11038,"BSTAR":0,"MEAN_MOTION_DOT":8.4e-7,"MEAN_MOTION_DDOT":0},{"OBJECT_NAME":"GALAXY 3R (G-3R)","OBJECT_ID":"1995-069A","EPOCH":"2026-03-07T11:18:38.890944","MEAN_MOTION":1.00309981,"ECCENTRICITY":0.00018571,"INCLINATION":13.1925,"RA_OF_ASC_NODE":16.9856,"ARG_OF_PERICENTER":347.5174,"MEAN_ANOMALY":202.8386,"EPHEMERIS_TYPE":0,"CLASSIFICATION_TYPE":"U","NORAD_CAT_ID":23741,"ELEMENT_SET_NO":999,"REV_AT_EPOCH":11079,"BSTAR":0,"MEAN_MOTION_DOT":2.1e-7,"MEAN_MOTION_DDOT":0},{"OBJECT_NAME":"ABS-1A","OBJECT_ID":"1996-003A","EPOCH":"2026-03-06T17:32:38.713632","MEAN_MOTION":0.99803678,"ECCENTRICITY":0.00011672,"INCLINATION":12.4677,"RA_OF_ASC_NODE":26.3145,"ARG_OF_PERICENTER":296.3028,"MEAN_ANOMALY":261.013,"EPHEMERIS_TYPE":0,"CLASSIFICATION_TYPE":"U","NORAD_CAT_ID":23768,"ELEMENT_SET_NO":999,"REV_AT_EPOCH":11015,"BSTAR":0,"MEAN_MOTION_DOT":-2.5e-6,"MEAN_MOTION_DDOT":0},{"OBJECT_NAME":"DELTA 2 R/B(2)","OBJECT_ID":"1996-003C","EPOCH":"2026-03-07T06:46:41.240928","MEAN_MOTION":2.19761989,"ECCENTRICITY":0.6924181,"INCLINATION":20.4422,"RA_OF_ASC_NODE":155.266,"ARG_OF_PERICENTER":298.2559,"MEAN_ANOMALY":13.9659,"EPHEMERIS_TYPE":0,"CLASSIFICATION_TYPE":"U","NORAD_CAT_ID":23770,"ELEMENT_SET_NO":999,"REV_AT_EPOCH":24211,"BSTAR":0,"MEAN_MOTION_DOT":1.3e-7,"MEAN_MOTION_DDOT":0}]
